ONEWEB-0267             
1 48985U 21060U   24290.86109741  .00000045  00000+0  84728-4 0  9997
2 48985  87.9150 349.9499 0002204 102.2663 257.8715 13.16592032159542
ONEWEB-0268             
1 48986U 21060V   24291.20941776  .00000017  00000+0  11361-4 0  9991
2 48986  87.9146 349.8875 0001892 103.9423 256.1918 13.16593163161141
ONEWEB-0269             
1 48987U 21060W   24290.58243855 -.00000002  00000+0 -37506-4 0  9990
2 48987  87.9151 350.0407 0001780 100.6026 259.5305 13.16597491159548
ONEWEB-0270             
1 48988U 21060X   24290.21987713  .00000069  00000+0  14746-3 0  9990
2 48988  87.9146 350.0905 0002377  95.4880 264.6522 13.16592944159533
ONEWEB-0271             
1 48989U 21060Y   24290.58718684 -.00000402  00000+0 -10855-2 0  9999
2 48989  87.9144 349.9952 0002209 101.0892 259.0488 13.16594599159584
ONEWEB-0272             
1 48990U 21060Z   24291.21733794  .00000105  00000+0  24236-3 0  9998
2 48990  87.9148 349.9008 0002126 101.0255 259.1115 13.16593166160919
ONEWEB-0273             
1 48991U 21060AA  24291.16349260  .00000216  00000+0  53059-3 0  9992
2 48991  87.9150 349.8971 0002078  94.2620 265.8748 13.16597865160888
ONEWEB-0274             
1 48992U 21060AB  24290.58085754  .00000080  00000+0  17462-3 0  9990
2 48992  87.9148 350.0332 0002033 113.3884 246.7461 13.16597740159540
